0 FENGYUN 1C DEB
1 35121U 99025DKZ 13285.71104231 -.00000003  00000-0  19216-4 0  1444
2 35121 098.2660 097.4673 0163890 089.9051 272.1808 14.02208684292556
0 FENGYUN 1C DEB
1 35121U 99025DKZ 13289.70695692  .00000046  00000-0  47942-4 0  1457
2 35121 098.2645 101.0919 0162438 078.0853 283.8802 14.02210644293115
0 FENGYUN 1C DEB
1 35121U 99025DKZ 13292.70388129  .00000075  00000-0  65164-4 0  1464
2 35121 098.2616 103.8049 0161511 069.2599 292.5793 14.02212292293530
